#dP2023  2 15  0  0  0.00000000      96 __u+U ITR00 EXT  IAC
## 2249 259200.00000000   900.00000000 59990 0.0000000000000
+  120   C06C07C08C09C10C11C12C13C14C16C19C20C21C22C23C24C25
+        C26C27C28C29C30C32C33C34C35C36C37C38C39C40C41C42C43
+        C44C45C46E01E02E03E04E05E07E08E09E10E11E12E13E14E15
+        E18E19E21E24E25E26E27E30E31E33E34E36G01G02G03G04G05
+        G06G07G08G09G10G11G12G13G14G15G16G17G18G19G20G21G22
+        G23G24G25G26G27G28G29G30G31G32J02J03J04R01R02R03R04
+        R05R07R08R09R11R12R13R14R15R16R17R18R19R20R21R22R24
+        R25  0  0  0  0  0  0  0  0  0  0  0  0  0  0  0  0
++        10 11  9  9  9  9  8  9  9 10  9  8  8  8  8  6  9
++         8  7  7  8  9  9  9  9 10  7  7  9 11 11  7  9  9
++         9  8  8  7  6  8  6  8  7  7  7  7  8  7  7  7  8
++         7  6  8  7  7  7  6  7  6  6  8  7  6  5  7 10  7
++         7  9  7  8  7  5  6  6  7  7  7  6  7  8  6  8  6
++         7  7  6  5  8  7  7  7  6 10  8  9  9  8  8  6  7
++         6  8  8  8  9  7  9  7  8  8  8  8  8  8  7  6  7
++         8  0  0  0  0  0  0  0  0  0  0  0  0  0  0  0  0
%c M  cc GPS ccc cccc cccc cccc cccc ccccc ccccc ccccc ccccc
%c cc cc ccc ccc cccc cccc cccc cccc ccccc ccccc ccccc ccccc
%f  0.0000000  0.000000000  0.00000000000  0.000000000000000
%f  0.0000000  0.000000000  0.00000000000  0.000000000000000
%i    0    0    0    0      0      0      0      0         0
%i    0    0    0    0      0      0      0      0         0
/* IAC                                ULTRA-RAPID PREDICTION
/* S/V CLOCKS ARE ALIGNED TO GNSS TIME                      
/* G:C1WC2W R:C1PC2P E:C1XC5X C:C2IC6I J:C1CC2S             
/* PCV:IGS20_2247 OL/AL:FES2004  NONE     YN ORB:CoN CLK:CoN
*  2023 02 15  0 15  0.00000000
PC06  -5489.386692  24469.813070  33925.010101   -191.309053
PC07 -17760.906487  34538.192089 -16550.088693    112.830172
PC08  -3476.656550  39458.508333 -14149.201529    525.958023
PC09   3878.587810  27884.261829  31932.740120    678.438120
PC10 -11829.622349  34591.120064 -21120.542540     11.143746
PC11  14988.925228 -10093.227290  21330.042556   -120.173485
PC12  26497.381440   1884.208175   8588.003902    453.224693
PC13    428.615552  41068.631305  -8728.197122    207.978007
PC14  18405.069802 -20781.778340  -2530.612795    481.144996
PC16  -7022.412871  23356.626987  34611.290205    162.116673
PC19 -11601.346233  22634.394278  11532.198941   -894.579328
PC20 -21761.515219  16730.037448  -5091.474706    723.307556
PC21  19517.063330   -154.915719  19957.425995   -910.933692
PC22   5707.024177  15785.757487  22300.829240   -632.504888
PC23 -10063.639684 -25637.549404   4514.285151   -877.676769
PC24  14353.010242  -8726.577700 -22307.726257   -409.697763
PC25   1663.334715 -25200.519414 -11908.985776     72.185252
PC26  17383.897101  10074.205730 -19369.301630    -78.864373
PC27 -26871.732036  -7489.376869   -254.199576     96.913414
PC28 -17031.557847 -15928.943522  15331.018161     70.579285
PC29  -3789.686923  15497.066821 -22900.644227     81.207272
PC30 -22324.360731   5805.507508 -15692.815892      1.156540
PC32 -19495.744297    277.226372 -19948.494572   -621.823416
PC33  11546.032591 -22692.538993 -11399.337792   -873.159280
PC34  21517.609294  -6593.658397  16507.737435    106.322368
PC35  16530.427267  15692.755981 -16139.889122    680.400234
PC36  -2752.663048  24810.955679  12477.133646   -624.720541
PC37 -16997.008483 -12024.926772  18597.914655   -820.980918
PC38  -8869.586660  35332.636106 -21055.791266     58.856241
PC39 -13891.539966  20220.918225  34297.796298     -1.808715
PC40 -25097.714108  29989.673478 -16048.677569    -15.123343
PC41  -5206.792920 -16186.526497 -22070.913555   -612.994398
PC42  22063.146764 -15846.426432   6394.999467   -836.493487
PC43   4810.556456 -15345.155667  22798.587334      7.225955
PC44  27121.414458   6658.109308     17.748738     15.655663
PC45  10267.228956  25458.846515  -4946.473296    -60.528069
PC46 -13505.278060  10507.083773  22027.871302    -33.467174
PE01   2354.846377 -28223.689730   8623.123028   -600.538282
PE02  -2012.715439  28101.306524  -9048.976080     20.848122
PE03    991.780875  17168.490373  24090.597701   -650.098476
PE04 -20942.712879  -8689.570661 -19019.218615    -58.450026
PE05 -20014.501401  15738.879890  15096.608791    -95.279251
PE07  29038.385964  -5051.720221   2705.752257    -22.977462
PE08  20806.990656   8637.231538  19197.374573    -36.208284
PE09 -29034.853509   5006.602166  -2891.783885   -836.391310
PE10 -23552.925826 -13127.493556 -12211.793744   -512.453783
PE11 -21414.083293  -3542.205574 -20121.495211    887.928936
PE12 -21756.921639 -19800.065004  -3167.718561   -422.544176
PE13  21727.773275   4405.390850  19626.743774     -0.264158
PE14 -30476.560076   5179.188647  -1870.129083    142.422834
PE15  21686.101117  19955.494997   2845.069315     -1.183818
PE18  24602.612922   2859.109292  -6390.047781   -389.956606
PE19   2174.021970 -17483.092701 -23780.397545  -3232.866227
PE21  13599.617003 -24840.231853  -8639.556502   -512.205821
PE24 -18089.666508   5999.677051  22620.891764  -1114.619020
PE25 -13745.675510  24640.088474   8927.569713   -599.402335
PE26   8475.664715 -14290.145934  24504.969920     18.625055
PE27  18093.556014  -7055.851591 -22347.664117   -512.489673
PE30  11530.559941  15396.143587 -22507.740867  -1243.160699
PE31 -11882.296592 -14732.396988  22761.725551   -516.059146
PE33  -8818.984254 -23611.509702  15517.515955   -451.964304
PE34   9015.290370  23630.837699 -15377.118235    -30.138706
PE36  -9031.160292  13552.524453 -24711.121231    -12.544582
PG01  20233.437023  11670.707205  12653.032069    212.463578
PG02 -20738.258572  -6957.348813 -14272.913155   -620.796627
PG03  14933.685708   1864.535700  21754.615246   -363.024055
PG04  25746.017149   1035.679566   6689.384790    -27.352247
PG05  -8026.735141 -17384.048376 -18524.100358   -115.936935
PG06    -54.732934 -19116.685904  18464.929014    572.450734
PG07  16856.790231  -2222.014523 -20086.747308    240.875704
PG08  19298.582353   7978.745169 -16693.809919   -108.537815
PG09  25071.259687  -7913.032471  -4027.617648   -218.096765
PG10 -11183.782018  23578.715048  -3758.337782    -24.735993
PG11 -10832.633267 -23046.476197   7620.020949   -104.435158
PG12 -14263.536188  -4695.661418  21624.268611   -340.430661
PG13 -11999.541086 -13198.020318 -19916.600887    476.203556
PG14  13560.041119 -21894.589777  -6210.107231    -26.962118
PG15 -20270.355283  -6358.266798 -16554.995023     13.514599
PG16   4359.567223  19454.945090 -17611.440346   -520.044593
PG17  16995.753558 -13001.391355  16231.967078    700.072594
PG18 -14117.218015   6023.616248 -21688.608465   -140.963241
PG19   6265.306526 -14676.627545  20949.946940    277.799232
PG20  -2316.378800 -24827.012321  -9415.914197    450.667067
PG21  21226.156638  15999.755169   5330.013072    153.997169
PG22  -2148.552264  15498.545631  21881.792762    427.177770
PG23 -15547.793969  16003.265096 -14292.528028      6.186629
PG24 -21669.461596 -13364.735267   7930.448803    -74.031330
PG25 -16699.307987   6359.096930  19251.308923    420.155591
PG26  -3220.167053  25619.606814  -5503.595546    241.491156
PG27   8352.703378  13534.136297 -21567.854454    102.220593
PG28  -1325.249432  18390.781010  19085.495828     12.673865
PG29 -26347.863141   3476.563869  -1224.633098   -586.152280
PG30   7723.235526 -14590.320639 -20666.499768   -530.279265
PG31   1091.628364  20263.892767  16721.666376   -209.257739
PG32 -13460.998064  14930.484965  17421.554076   -396.366537
PJ02 -31437.183880  25379.287164  17098.213740     -0.904506
PJ03 -26212.838625  16735.049551 -23862.918186      0.241676
PJ04 -24139.845268  34472.367542   2383.815692     94.267159
PR01  -4653.408158 -10160.565294 -22924.698339     23.050730
PR02 -18858.364812   3131.008841 -16804.820301    -23.271873
PR03 -21283.527237  13969.019805   -910.688439     72.504703
PR04 -12057.658793  16603.219763  15174.449089    175.814002
PR05   3799.987809  10342.359051  23017.971578    107.766629
PR07  21189.344310 -14249.872634    243.535033     49.949509
PR08  11878.569544 -16702.883350 -15145.923893    -69.471358
PR09  11498.687601   6985.498382 -21673.670836    104.143632
PR11   2013.216504 -23874.424556  -8731.841885     -4.843583
PR12  -6719.855356 -22418.618490  10187.868555     25.008977
PR13 -11043.134879  -8910.758868  21176.704234    -32.037020
PR14  -9012.533670  12032.921257  20615.149029     24.341101
PR15  -1768.263512  24269.654939   7662.137444     91.063216
PR16   6693.696307  22567.498906  -9860.860339     11.281875
PR17 -16523.099280   1717.474349 -19358.063283    604.931113
PR18  -1069.145037  11000.441224 -22976.172762     66.841692
PR19  13321.144383  15045.943650 -15709.819609   -221.931866
PR20  22997.803486  10327.380163   4063.078429    -87.712685
PR21  15191.774743  -2666.675410  20313.284459   -373.380456
PR22    890.333551 -11675.840093  22687.786841     71.008453
PR24 -23340.005477  -9198.379767  -4618.411418    146.858844
PR25  16890.139843   -985.534685  19090.964409     55.097295
EOF
